NORAD_CAT_ID,OBJECT_NAME,OBJECT_TYPE,EPOCH,MEAN_MOTION,ECCENTRICITY,INCLINATION,RA_OF_ASC_NODE,ARG_OF_PERICENTER,MEAN_ANOMALY,BSTAR,MEAN_MOTION_DOT,MEAN_MOTION_DDOT,TLE_LINE0,TLE_LINE1,TLE_LINE2,SEMIMAJOR_AXIS,PERIOD,APOGEE,PERIGEE,DECAYED
53429.0,STARLINK-4543,PAYLOAD,2024-02-17 22:25:46,15.08835406,0.0001364,53.2168,234.5051,94.7402,265.3746,-1.6287e-05,-5.47e-06,0.0,0 STARLINK-4543,1 53429U 22097AT  24048.93456477 -.00000547  00000-0 -16287-4 0  9992,2 53429  53.2168 234.5051 0001364  94.7402 265.3746 15.08835406 85444,6917.894,95.438,540.703,538.816,0.0
53429.0,STARLINK-4543,PAYLOAD,2024-02-18 11:08:51,15.08840566,0.0001307,53.2169,232.1265,98.2577,261.8564,7.7624e-05,9.48e-06,0.0,0 STARLINK-4543,1 53429U 22097AT  24049.46448023  .00000948  00000-0  77624-4 0  9994,2 53429  53.2169 232.1265 0001307  98.2577 261.8564 15.08840566 85526,6917.879,95.438,540.648,538.839,0.0
53429.0,STARLINK-4543,PAYLOAD,2024-02-18 19:05:46,15.08851196,0.000126,53.2166,230.6403,95.2722,264.8414,0.00013372,1.842e-05,0.0,0 STARLINK-4543,1 53429U 22097AT  24049.79567215  .00001842  00000-0  13372-3 0  9998,2 53429  53.2166 230.6403 0001260  95.2722 264.8414 15.08851196 85097,6917.846,95.437,540.583,538.84,0.0
53429.0,STARLINK-4543,PAYLOAD,2024-02-19 10:59:41,15.08744518,0.0001019,53.2159,227.6674,135.7597,224.3476,0.0017382,0.00027411,0.0,0 STARLINK-4543,1 53429U 22097AT  24050.45812070  .00027411  00000-0  17382-2 0  9999,2 53429  53.2159 227.6674 0001019 135.7597 224.3476 15.08744518 85196,6918.172,95.444,540.742,539.332,0.0
53429.0,STARLINK-4543,PAYLOAD,2024-02-19 18:56:33,15.08846344,0.0001166,53.216,226.1801,100.1676,259.9448,0.00015437,2.17e-05,0.0,0 STARLINK-4543,1 53429U 22097AT  24050.78927862  .00002170  00000-0  15437-3 0  9996,2 53429  53.2160 226.1801 0001166 100.1676 259.9448 15.08846344 85240,6917.861,95.437,540.533,538.919,0.0
53429.0,STARLINK-4543,PAYLOAD,2024-02-19 20:31:56,15.08847604,0.0001213,53.2163,225.8824,97.2348,262.8782,0.00016716,2.374e-05,0.0,0 STARLINK-4543,1 53429U 22097AT  24050.85551694  .00002374  00000-0  16716-3 0  9997,2 53429  53.2163 225.8824 0001213  97.2348 262.8782 15.08847604 85737,6917.857,95.437,540.561,538.883,0.0
53429.0,STARLINK-4543,PAYLOAD,2024-02-20 04:28:52,15.08844174,0.0001204,53.2163,224.3967,99.6103,260.5025,9.8637e-05,1.282e-05,0.0,0 STARLINK-4543,1 53429U 22097AT  24051.18671994  .00001282  00000-0  98637-4 0  9990,2 53429  53.2163 224.3967 0001204  99.6103 260.5025 15.08844174 85783,6917.868,95.437,540.566,538.9,0.0
53429.0,STARLINK-4543,PAYLOAD,2024-02-20 18:47:20,15.08845631,0.0001233,53.2166,221.7206,96.1135,263.9998,3.6642e-06,-2.3e-06,0.0,0 STARLINK-4543,1 53429U 22097AT  24051.78287866 -.00000230  00000-0  36642-5 0  9999,2 53429  53.2166 221.7206 0001233  96.1135 263.9998 15.08845631 85394,6917.863,95.437,540.581,538.875,0.0
53429.0,STARLINK-4543,PAYLOAD,2024-02-21 04:19:39,15.08848969,0.0001203,53.2165,219.9357,91.3861,268.7268,4.7039e-05,4.61e-06,0.0,0 STARLINK-4543,1 53429U 22097AT  24052.18031324  .00000461  00000-0  47039-4 0  9996,2 53429  53.2165 219.9357 0001203  91.3861 268.7268 15.08848969 85939,6917.853,95.437,540.55,538.886,0.0
53429.0,STARLINK-4543,PAYLOAD,2024-02-21 18:38:06,15.08850132,0.0001279,53.2168,217.26,89.7524,270.3615,8.9294e-05,1.134e-05,0.0,0 STARLINK-4543,1 53429U 22097AT  24052.77646826  .00001134  00000-0  89294-4 0  9997,2 53429  53.2168 217.2600 0001279  89.7524 270.3615 15.08850132 85541,6917.849,95.437,540.599,538.83,0.0
53429.0,STARLINK-4543,PAYLOAD,2024-02-22 04:10:25,15.08841906,0.0001305,53.2171,215.4746,93.8578,266.2563,0.00010783,1.429e-05,0.0,0 STARLINK-4543,1 53429U 22097AT  24053.17391127  .00001429  00000-0  10783-3 0  9996,2 53429  53.2171 215.4746 0001305  93.8578 266.2563 15.08841906 85603,6917.875,95.437,540.642,538.837,0.0
53429.0,STARLINK-4543,PAYLOAD,2024-02-22 16:53:31,15.08837787,0.0001238,53.2166,213.0951,98.2818,261.8314,4.2542e-05,3.89e-06,0.0,0 STARLINK-4543,1 53429U 22097AT  24053.70383494  .00000389  00000-0  42542-4 0  9996,2 53429  53.2166 213.0951 0001238  98.2818 261.8314 15.08837787 85685,6917.887,95.438,540.609,538.896,0.0
53429.0,STARLINK-4543,PAYLOAD,2024-02-23 13:33:31,15.08842894,0.00013,53.2177,209.2286,99.7816,260.3323,9.2081e-06,-1.41e-06,0.0,0 STARLINK-4543,1 53429U 22097AT  24054.56495184 -.00000141  00000-0  92081-5 0  9992,2 53429  53.2177 209.2286 0001300  99.7816 260.3323 15.08842894 86296,6917.872,95.437,540.636,538.837,0.0
53429.0,STARLINK-4543,PAYLOAD,2024-02-23 16:44:18,15.08843003,0.0001168,53.217,208.636,92.0426,268.07,2.2152e-05,6.5e-07,0.0,0 STARLINK-4543,1 53429U 22097AT  24054.69743131  .00000065  00000-0  22152-4 0  9999,2 53429  53.2170 208.6360 0001168  92.0426 268.0700 15.08843003 86310,6917.871,95.437,540.544,538.928,0.0
53429.0,STARLINK-4543,PAYLOAD,2024-02-24 10:13:32,15.08837886,0.0001327,53.2173,205.3645,93.1225,266.9919,5.3654e-05,5.66e-06,0.0,0 STARLINK-4543,1 53429U 22097AT  24055.42607406  .00000566  00000-0  53654-4 0  9992,2 53429  53.2173 205.3645 0001327  93.1225 266.9919 15.08837886 85948,6917.887,95.438,540.67,538.834,0.0
53429.0,STARLINK-4543,PAYLOAD,2024-02-24 13:24:18,15.08838849,0.0001242,53.2172,204.7692,96.1599,263.9535,8.7044e-05,1.098e-05,0.0,0 STARLINK-4543,1 53429U 22097AT  24055.55855245  .00001098  00000-0  87044-4 0  9993,2 53429  53.2172 204.7692 0001242  96.1599 263.9535 15.08838849 86442,6917.884,95.438,540.608,538.89,0.0
53429.0,STARLINK-4543,PAYLOAD,2024-02-24 16:35:05,15.08841646,0.000129,53.2174,204.1757,91.9977,268.1163,9.3617e-05,1.202e-05,0.0,0 STARLINK-4543,1 53429U 22097AT  24055.69103097  .00001202  00000-0  93617-4 0  9999,2 53429  53.2174 204.1757 0001290  91.9977 268.1163 15.08841646 86461,6917.875,95.437,540.633,538.848,0.0
53429.0,STARLINK-4543,PAYLOAD,2024-02-25 13:15:06,15.08834518,0.0001292,53.2171,200.3102,91.6908,268.4232,4.8627e-06,-2.1e-06,0.0,0 STARLINK-4543,1 53429U 22097AT  24056.55215981 -.00000210  00000-0  48627-5 0  9992,2 53429  53.2171 200.3102 0001292  91.6908 268.4232 15.08834518 86115,6917.897,95.438,540.656,538.868,0.0
53429.0,STARLINK-4543,PAYLOAD,2024-02-25 14:50:29,15.08838527,0.0001195,53.2175,200.0144,85.9038,274.2091,-9.0259e-06,-4.31e-06,0.0,0 STARLINK-4543,1 53429U 22097AT  24056.61839823 -.00000431  00000-0 -90259-5 0  9990,2 53429  53.2175 200.0144 0001195  85.9038 274.2091 15.08838527 86600,6917.885,95.438,540.577,538.923,0.0
53429.0,STARLINK-4543,PAYLOAD,2024-02-25 16:25:52,15.08839677,0.0001323,53.2172,199.7164,89.4038,270.7105,4.0834e-05,3.62e-06,0.0,0 STARLINK-4543,1 53429U 22097AT  24056.68463600  .00000362  00000-0  40834-4 0  9997,2 53429  53.2172 199.7164 0001323  89.4038 270.7105 15.08839677 86610,6917.881,95.438,540.662,538.831,0.0
53429.0,STARLINK-4543,PAYLOAD,2024-02-26 01:58:11,15.08841374,0.0001282,53.2168,197.9323,87.6153,272.4986,6.4485e-05,7.39e-06,0.0,0 STARLINK-4543,1 53429U 22097AT  24057.08207459  .00000739  00000-0  64485-4 0  9996,2 53429  53.2168 197.9323 0001282  87.6153 272.4986 15.08841374 86190,6917.876,95.437,540.628,538.854,0.0
53429.0,STARLINK-4543,PAYLOAD,2024-02-26 14:41:16,15.08838959,0.000148,53.2189,195.5554,101.7245,258.3913,5.5464e-05,5.95e-06,0.0,0 STARLINK-4543,1 53429U 22097AT  24057.61199773  .00000595  00000-0  55464-4 0  9991,2 53429  53.2189 195.5554 0001480 101.7245 258.3913 15.08838959 86753,6917.884,95.438,540.772,538.725,0.0
53429.0,STARLINK-4543,PAYLOAD,2024-02-26 17:52:02,15.08842396,0.0001435,53.2193,194.9593,92.5367,267.5789,5.6581e-05,6.13e-06,0.0,0 STARLINK-4543,1 53429U 22097AT  24057.74447546  .00000613  00000-0  56581-4 0  9991,2 53429  53.2193 194.9593 0001435  92.5367 267.5789 15.08842396 86771,6917.873,95.437,540.731,538.745,0.0
53429.0,STARLINK-4543,PAYLOAD,2024-02-27 08:10:30,15.08849929,0.0001453,53.2187,192.2818,101.051,259.0646,0.00011515,1.546e-05,0.0,0 STARLINK-4543,1 53429U 22097AT  24058.34062863  .00001546  00000-0  11515-3 0  9996,2 53429  53.2187 192.2818 0001453 101.0510 259.0646 15.08849929 86385,6917.85,95.437,540.72,538.71,0.0
53429.0,STARLINK-4543,PAYLOAD,2024-02-27 14:32:02,15.0885259,0.000142,53.2183,191.0928,98.5171,261.5982,0.00013709,1.895e-05,0.0,0 STARLINK-4543,1 53429U 22097AT  24058.60558509  .00001895  00000-0  13709-3 0  9996,2 53429  53.2183 191.0928 0001420  98.5171 261.5982 15.08852590 86904,6917.842,95.437,540.689,538.725,0.0
53429.0,STARLINK-4543,PAYLOAD,2024-02-27 19:18:10,15.08869078,0.0001541,53.218,190.1987,109.3862,250.7296,4.8864e-05,4.9e-06,0.0,0 STARLINK-4543,1 53429U 22097AT  24058.80429367  .00000490  00000-0  48864-4 0  9998,2 53429  53.2180 190.1987 0001541 109.3862 250.7296 15.08869078 86455,6917.792,95.436,540.723,538.59,0.0
53429.0,STARLINK-4543,PAYLOAD,2024-02-28 12:47:29,15.08816107,0.0001314,53.2176,186.9301,59.193,300.9191,-0.00010096,-1.893e-05,0.0,0 STARLINK-4543,1 53429U 22097AT  24059.53297903 -.00001893  00000-0 -10096-3 0  9993,2 53429  53.2176 186.9301 0001314  59.1930 300.9191 15.08816107 86568,6917.953,95.439,540.727,538.909,0.0
53429.0,STARLINK-4543,PAYLOAD,2024-02-28 14:22:52,15.08826795,0.000133,53.2176,186.6227,75.4229,284.6911,-0.0001271,-2.309e-05,0.0,0 STARLINK-4543,1 53429U 22097AT  24059.59921300 -.00002309  00000-0 -12710-3 0  9992,2 53429  53.2176 186.6227 0001330  75.4229 284.6911 15.08826795 87059,6917.921,95.438,540.706,538.866,0.0
53429.0,STARLINK-4543,PAYLOAD,2024-02-28 17:33:38,15.08827732,0.0001349,53.2181,186.0277,83.0914,277.0232,-0.00011138,-2.059e-05,0.0,0 STARLINK-4543,1 53429U 22097AT  24059.73169260 -.00002059  00000-0 -11138-3 0  9992,2 53429  53.2181 186.0277 0001349  83.0914 277.0232 15.08827732 86592,6917.918,95.438,540.716,538.85,0.0
53429.0,STARLINK-4543,PAYLOAD,2024-02-29 14:13:37,15.08847486,0.0001152,53.217,182.1675,113.4281,246.6832,-2.219e-05,-6.41e-06,0.0,0 STARLINK-4543,1 53429U 22097AT  24060.59279841 -.00000641  00000-0 -22190-4 0  9991,2 53429  53.2170 182.1675 0001152 113.4281 246.6832 15.08847486 86727,6917.858,95.437,540.519,538.926,0.0
